NORAD_CAT_ID,OBJECT_NAME,OBJECT_TYPE,EPOCH,MEAN_MOTION,ECCENTRICITY,INCLINATION,RA_OF_ASC_NODE,ARG_OF_PERICENTER,MEAN_ANOMALY,BSTAR,MEAN_MOTION_DOT,MEAN_MOTION_DDOT,TLE_LINE0,TLE_LINE1,TLE_LINE2,SEMIMAJOR_AXIS,PERIOD,APOGEE,PERIGEE,DECAYED
53034.0,STARLINK-4151,PAYLOAD,2022-07-24 14:00:01,15.73144676,0.000184,53.2188,295.2353,22.6588,243.8918,0.00017405,0.00023819,0.0,0 STARLINK-4151,1 53034U 22076BA  22205.58334491  .00023819  00000-0  17405-3 0  9993,2 53034  53.2188 295.2353 0001840  22.6588 243.8918 15.73144676  3166,6728.053000000001,91.536,351.156,348.68,0.0
53034.0,STARLINK-4151,PAYLOAD,2022-07-24 22:00:00,15.73173849,0.0001745,53.2193,293.5862,18.612,336.7817,4.2799e-05,5.383e-05,0.0,0 STARLINK-4151,1 53034U 22076BA  22205.91667824  .00005383  00000-0  42799-4 0  9990,2 53034  53.2193 293.5862 0001745  18.6120 336.7817 15.73173849  1307,6727.97,91.535,351.009,348.661,0.0
53034.0,STARLINK-4151,PAYLOAD,2022-07-25 14:00:01,15.73189506,0.0002003,53.2192,290.2887,21.4493,151.7513,0.00028997,0.00040253,0.0,0 STARLINK-4151,1 53034U 22076BA  22206.58334491  .00040253  00000-0  28997-3 0  9993,2 53034  53.2192 290.2887 0002003  21.4493 151.7513 15.73189506  1305,6727.925,91.534,351.13800000000015,348.44199999999995,0.0
53034.0,STARLINK-4151,PAYLOAD,2022-07-25 22:00:00,15.73266323,0.0001894,53.2187,288.6381,23.5424,238.5945,-0.00054867,-0.00077144,0.0,0 STARLINK-4151,1 53034U 22076BA  22206.91667824 -.00077144  00000-0 -54867-3 0  9995,2 53034  53.2187 288.6381 0001894  23.5424 238.5945 15.73266323  3378,6727.706,91.529,350.845,348.297,0.0
53034.0,STARLINK-4151,PAYLOAD,2022-07-26 14:00:01,15.73195864,0.000213,53.2191,285.3408,27.107,52.9389,0.00037445,0.00052252,0.0,0 STARLINK-4151,1 53034U 22076BA  22207.58334491  .00052252  00000-0  37445-3 0  9994,2 53034  53.2191 285.3408 0002130  27.1070  52.9389 15.73195864  3481,6727.906999999997,91.533,351.205,348.339,0.0
53034.0,STARLINK-4151,PAYLOAD,2022-07-26 22:00:00,15.73275979,0.0002026999999999,53.2191,283.69,24.857,144.1367,-0.00069631,-0.00097544,0.0,0 STARLINK-4151,1 53034U 22076BA  22207.91667824 -.00097544  00000-0 -69631-3 0  9997,2 53034  53.2191 283.6900 0002027  24.8570 144.1367 15.73275979  1308,6727.679,91.529,350.907,348.18,0.0
53034.0,STARLINK-4151,PAYLOAD,2022-07-27 06:00:02,15.73205253,0.0001939,53.2192,282.0401,25.8946,232.133,0.00019994,0.00027539,0.0,0 STARLINK-4151,1 53034U 22076BA  22208.25002315  .00027539  00000-0  19994-3 0  9995,2 53034  53.2192 282.0401 0001939  25.8946 232.1330 15.73205253  3585,6727.88,91.533,351.05,348.441,0.0
53034.0,STARLINK-4151,PAYLOAD,2022-07-27 14:00:01,15.73231141,0.0002295,53.2188,280.3927,25.3394,321.5693,-0.00020096,-0.0002877,0.0,0 STARLINK-4151,1 53034U 22076BA  22208.58334491 -.00028770  00000-0 -20096-3 0  9999,2 53034  53.2188 280.3927 0002295  25.3394 321.5693 15.73231141  1300,6727.806,91.531,351.215,348.12699999999984,0.0
53034.0,STARLINK-4151,PAYLOAD,2022-07-27 22:00:00,15.73196525,0.000217,53.2184,278.7418,29.8185,46.0488,-2.0518e-05,-3.5e-05,0.0,0 STARLINK-4151,1 53034U 22076BA  22208.91667824 -.00003500  00000-0 -20518-4 0  9999,2 53034  53.2184 278.7418 0002170  29.8185  46.0488 15.73196525  1308,6727.905,91.533,351.23,348.31,0.0
53034.0,STARLINK-4151,PAYLOAD,2022-07-28 00:00:00,15.73169015,0.0002128,53.2183,278.3286,29.7031,158.404,0.00042203,0.0005895,0.0,0 STARLINK-4151,1 53034U 22076BA  22209.00001157  .00058950  00000-0  42203-3 0  9992,2 53034  53.2183 278.3286 0002128  29.7031 158.4040 15.73169015  3700,6727.984,91.535,351.28,348.417,0.0
53034.0,STARLINK-4151,PAYLOAD,2022-07-28 14:00:01,15.73229351,0.0002340999999999,53.2185,275.4449,26.7522,226.9819,-0.00033911,-0.00048009,0.0,0 STARLINK-4151,1 53034U 22076BA  22209.58334491 -.00048009  00000-0 -33911-3 0  9997,2 53034  53.2185 275.4449 0002341  26.7522 226.9819 15.73229351  1309,6727.811,91.531,351.251,348.102,0.0
53034.0,STARLINK-4151,PAYLOAD,2022-07-28 22:00:00,15.73183309,0.0002145,53.2186,273.7937,24.8474,317.8342,0.00012283,0.0001664,0.0,0 STARLINK-4151,1 53034U 22076BA  22209.91667824  .00016640  00000-0  12283-3 0  9996,2 53034  53.2186 273.7937 0002145  24.8474 317.8342 15.73183309  1303,6727.943,91.534,351.251,348.365,0.0
53034.0,STARLINK-4151,PAYLOAD,2022-07-29 00:00:00,15.73164561,0.0002081,53.2185,273.3811,24.7448,70.1711,0.00047507,0.00066483,0.0,0 STARLINK-4151,1 53034U 22076BA  22210.00001157  .00066483  00000-0  47507-3 0  9996,2 53034  53.2185 273.3811 0002081  24.7448  70.1711 15.73164561  3869,6727.996,91.535,351.261,348.461,0.0
53034.0,STARLINK-4151,PAYLOAD,2022-07-29 14:00:01,15.73207144,0.0002405,53.2182,270.4966,21.8123,138.7404,-0.00022419,-0.0003198,0.0,0 STARLINK-4151,1 53034U 22076BA  22210.58334491 -.00031980  00000-0 -22419-3 0  9990,2 53034  53.2182 270.4966 0002405  21.8123 138.7404 15.73207144  1305,6727.875,91.533,351.358,348.122,0.0
53034.0,STARLINK-4151,PAYLOAD,2022-07-29 22:00:00,15.73177767,0.0002166999999999,53.2178,268.8454,21.2202,228.2631,0.00013522,0.00018381,0.0,0 STARLINK-4151,1 53034U 22076BA  22210.91667824  .00018381  00000-0  13522-3 0  9999,2 53034  53.2178 268.8454 0002167  21.2202 228.2631 15.73177767  1304,6727.959,91.534,351.282,348.366,0.0
53034.0,STARLINK-4151,PAYLOAD,2022-07-30 06:00:00,15.73212019,0.0002133999999999,53.2179,267.1962,22.8867,315.4945,4.0341e-06,-5.5e-07,0.0,0 STARLINK-4151,1 53034U 22076BA  22211.25001157 -.00000055  00000-0  40341-5 0  9999,2 53034  53.2179 267.1962 0002134  22.8867 315.4945 15.73212019  4062,6727.861,91.532,351.162,348.29,0.0
53034.0,STARLINK-4151,PAYLOAD,2022-07-30 14:00:01,15.7318674,0.0002379,53.2178,265.5485,20.0707,47.2554,0.00051107,0.00071684,0.0,0 STARLINK-4151,1 53034U 22076BA  22211.58334491  .00071684  00000-0  51107-3 0  9990,2 53034  53.2178 265.5485 0002379  20.0707  47.2554 15.73186740  1308,6727.933000000001,91.534,351.399,348.19699999999995,0.0
53034.0,STARLINK-4151,PAYLOAD,2022-07-30 22:00:00,15.73235092,0.00022,53.218,263.897,17.8051,138.4686,-0.00052493,-0.00073768,0.0,0 STARLINK-4151,1 53034U 22076BA  22211.91667824 -.00073768  00000-0 -52493-3 0  9992,2 53034  53.2180 263.8970 0002200  17.8051 138.4686 15.73235092  1304,6727.795,91.531,351.14,348.18,0.0
53034.0,STARLINK-4151,PAYLOAD,2022-07-31 06:00:02,15.73200403,0.0002217,53.2181,262.2478,18.7151,226.5609,3.7815e-06,-9.1e-07,0.0,0 STARLINK-4151,1 53034U 22076BA  22212.25002315 -.00000091  00000-0  37815-5 0  9999,2 53034  53.2181 262.2478 0002217  18.7151 226.5609 15.73200403  4215,6727.894,91.533,351.251,348.267,0.0
53034.0,STARLINK-4151,PAYLOAD,2022-07-31 14:00:01,15.73175753,0.0002504999999999,53.2176,260.5999,17.4292,316.7072,0.00047426,0.00066403,0.0,0 STARLINK-4151,1 53034U 22076BA  22212.58334491  .00066403  00000-0  47426-3 0  9993,2 53034  53.2176 260.5999 0002505  17.4292 316.7072 15.73175753  1302,6727.964,91.535,351.515,348.144,0.0
53034.0,STARLINK-4151,PAYLOAD,2022-07-31 22:00:00,15.73203414,0.0002217,53.2175,258.9484,18.2566,44.817,0.00032755,0.00045608,0.0,0 STARLINK-4151,1 53034U 22076BA  22212.91667824  .00045608  00000-0  32755-3 0  9992,2 53034  53.2175 258.9484 0002217  18.2566  44.8170 15.73203414  1308,6727.885,91.533,351.242,348.259,0.0
53034.0,STARLINK-4151,PAYLOAD,2022-08-01 04:00:00,15.73259029,0.0002198,53.2177,257.7113,18.9817,20.7894,-0.00036063,-0.00051061,0.0,0 STARLINK-4151,1 53034U 22076BA  22213.16667824 -.00051061  00000-0 -36063-3 0  9998,2 53034  53.2177 257.7113 0002198  18.9817  20.7894 15.73259029  4368,6727.727,91.53,351.071,348.11300000000006,0.0
53034.0,STARLINK-4151,PAYLOAD,2022-08-01 14:00:01,15.73170219,0.0002463999999999,53.2176,255.6513,12.7011,228.2989,0.0005428999999999,0.00076174,0.0,0 STARLINK-4151,1 53034U 22076BA  22213.58334491  .00076174  00000-0  54290-3 0  9997,2 53034  53.2176 255.6513 0002464  12.7011 228.2989 15.73170219  1306,6727.98,91.535,351.50300000000016,348.18699999999984,0.0
53034.0,STARLINK-4151,PAYLOAD,2022-08-01 22:00:00,15.73208109,0.0002295,53.218,253.9998,16.0738,313.8492,3.1153000000000005e-05,3.754e-05,0.0,0 STARLINK-4151,1 53034U 22076BA  22213.91667824  .00003754  00000-0  31153-4 0  9991,2 53034  53.2180 253.9998 0002295  16.0738 313.8492 15.73208109  1304,6727.871999999999,91.533,351.281,348.1930000000001,0.0
53034.0,STARLINK-4151,PAYLOAD,2022-08-02 14:00:01,15.73163548,0.000268,53.2177,250.7027,21.3996,126.3858,0.00045755,0.00063991,0.0,0 STARLINK-4151,1 53034U 22076BA  22214.58334491  .00063991  00000-0  45755-3 0  9997,2 53034  53.2177 250.7027 0002680  21.3996 126.3858 15.73163548  1301,6727.999,91.535,351.667,348.061,0.0
53034.0,STARLINK-4151,PAYLOAD,2022-08-03 06:00:00,15.73261939,0.0002467,53.218,247.4026,22.731,302.9138,-0.00054682,-0.00076882,0.0,0 STARLINK-4151,1 53034U 22076BA  22215.25001157 -.00076882  00000-0 -54682-3 0  9996,2 53034  53.2180 247.4026 0002467  22.7310 302.9138 15.73261939  4685,6727.719,91.53,351.24300000000005,347.9240000000001,0.0
53034.0,STARLINK-4151,PAYLOAD,2022-08-03 14:00:01,15.73176116,0.000263,53.2179,245.7541,18.7107,35.921,0.00035052,0.00048813,0.0,0 STARLINK-4151,1 53034U 22076BA  22215.58334491  .00048813  00000-0  35052-3 0  9993,2 53034  53.2179 245.7541 0002630  18.7107  35.9210 15.73176116  1309,6727.9630000000025,91.535,351.598,348.059,0.0
53034.0,STARLINK-4151,PAYLOAD,2022-08-03 22:00:01,15.73187124,0.0002384,53.2184,244.1025,18.9339,124.688,0.00037658,0.00052536,0.0,0 STARLINK-4151,1 53034U 22076BA  22215.91668981  .00052536  00000-0  37658-3 0  9995,2 53034  53.2184 244.1025 0002384  18.9339 124.6880 15.73187124  4796,6727.932,91.534,351.401,348.1930000000001,0.0
53034.0,STARLINK-4151,PAYLOAD,2022-08-04 14:00:01,15.73173757,0.0002688,53.2182,240.8057,15.2126,306.199,0.00035134,0.00048925,0.0,0 STARLINK-4151,1 53034U 22076BA  22216.58334491  .00048925  00000-0  35134-3 0  9999,2 53034  53.2182 240.8057 0002688  15.2126 306.1990 15.73173757  4890,6727.97,91.535,351.64300000000014,348.027,0.0
